start=new Date('2021-10-21T00:00:00.000Z').valueOf();
sats=[{"OBJECT_TYPE":"PAYLOAD","NORAD_CAT_ID":"46082","MEAN_ELEMENT_THEORY":"SGP4","FILE":"3175135","ELEMENT_SET_NO":"999","MEAN_MOTION_DDOT":"0.0000000000000","ECCENTRICITY":"0.00015680","APOAPSIS":"548.276","OBJECT_NAME":"STARLINK-1578","EPOCH":"2021-10-20T19:05:35.713536","MEAN_ANOMALY":"262.9475","TLE_LINE1":"1 46082U 20055BH  21293.79555224  .00001405  00000-0  11316-3 0  9993","BSTAR":"0.00011316000000","RCS_SIZE":"LARGE","TIME_SYSTEM":"UTC","LAUNCH_DATE":"2020-08-07","RA_OF_ASC_NODE":"83.3149","REV_AT_EPOCH":"6801","CLASSIFICATION_TYPE":"U","SITE":"AFETR","ARG_OF_PERICENTER":"97.1692","SEMIMAJOR_AXIS":"6925.325","PERIAPSIS":"546.104","GP_ID":"187755532","EPHEMERIS_TYPE":"0","MEAN_MOTION_DOT":"0.00001405","COUNTRY_CODE":"US","DECAY_DATE":null,"INCLINATION":"53.0539","TLE_LINE2":"2 46082  53.0539  83.3149 0001568  97.1692 262.9475 15.06407616 68015","REF_FRAME":"TEME","OBJECT_ID":"2020-055BH","MEAN_MOTION":"15.06407616","CENTER_NAME":"EARTH","PERIOD":"95.592"},{"ECCENTRICITY":"0.00014470","MEAN_MOTION_DDOT":"0.0000000000000","ELEMENT_SET_NO":"999","EPOCH":"2021-10-20T19:58:39.521568","OBJECT_NAME":"STARLINK-1579","APOAPSIS":"548.191","NORAD_CAT_ID":"46083","OBJECT_TYPE":"PAYLOAD","MEAN_ELEMENT_THEORY":"SGP4","FILE":"3175135","RA_OF_ASC_NODE":"83.1466","LAUNCH_DATE":"2020-08-07","TIME_SYSTEM":"UTC","CLASSIFICATION_TYPE":"U","REV_AT_EPOCH":"6801","SITE":"AFETR","MEAN_ANOMALY":"270.4725","TLE_LINE1":"1 46083U 20055BJ  21293.83240187  .00001992  00000-0  15258-3 0  9998","BSTAR":"0.00015258000000","RCS_SIZE":"LARGE","GP_ID":"187754291","EPHEMERIS_TYPE":"0","PERIAPSIS":"546.187","MEAN_MOTION_DOT":"0.00001992","COUNTRY_CODE":"US","ARG_OF_PERICENTER":"89.6430","SEMIMAJOR_AXIS":"6925.324","OBJECT_ID":"2020-055BJ","MEAN_MOTION":"15.06408045","CENTER_NAME":"EARTH","PERIOD":"95.592","INCLINATION":"53.0542","DECAY_DATE":null,"REF_FRAME":"TEME","TLE_LINE2":"2 46083  53.0542  83.1466 0001447  89.6430 270.4725 15.06408045 68011"},{"OBJECT_NAME":"STARLINK-1585","APOAPSIS":"548.162","EPOCH":"2021-10-20T15:59:48.883200","ELEMENT_SET_NO":"999","MEAN_MOTION_DDOT":"0.0000000000000","ECCENTRICITY":"0.00013280","OBJECT_TYPE":"PAYLOAD","NORAD_CAT_ID":"46117","FILE":"3175135","MEAN_ELEMENT_THEORY":"SGP4","TIME_SYSTEM":"UTC","RA_OF_ASC_NODE":"283.9013","LAUNCH_DATE":"2020-08-18","SITE":"AFETR","CLASSIFICATION_TYPE":"U","REV_AT_EPOCH":"6503","TLE_LINE1":"1 46117U 20057A   21293.66653800 -.00002201  00000-0 -12893-3 0  9997","MEAN_ANOMALY":"286.3230","RCS_SIZE":"LARGE","BSTAR":"-0.00012893000000","PERIAPSIS":"546.323","GP_ID":"187754796","EPHEMERIS_TYPE":"0","COUNTRY_CODE":"US","MEAN_MOTION_DOT":"-0.00002201","ARG_OF_PERICENTER":"73.7905","SEMIMAJOR_AXIS":"6925.378","MEAN_MOTION":"15.06390493","OBJECT_ID":"2020-057A","CENTER_NAME":"EARTH","PERIOD":"95.593","TLE_LINE2":"2 46117  53.0555 283.9013 0001328  73.7905 286.3230 15.06390493 65033","REF_FRAME":"TEME","DECAY_DATE":null,"INCLINATION":"53.0555"},{"REF_FRAME":"TEME","TLE_LINE2":"2 46118  53.0536 305.0538 0001378  80.3414 279.7731 15.06389946 65993","INCLINATION":"53.0536","DECAY_DATE":null,"MEAN_MOTION":"15.06389946","OBJECT_ID":"2020-057B","PERIOD":"95.593","CENTER_NAME":"EARTH","ARG_OF_PERICENTER":"80.3414","SEMIMAJOR_AXIS":"6925.379","GP_ID":"187714628","EPHEMERIS_TYPE":"0","PERIAPSIS":"546.290","COUNTRY_CODE":"US","MEAN_MOTION_DOT":"-0.00001990","TLE_LINE1":"1 46118U 20057B   21293.41037143 -.00001990  00000-0 -11475-3 0  9996","MEAN_ANOMALY":"279.7731","RCS_SIZE":"LARGE","BSTAR":"-0.00011475000000","LAUNCH_DATE":"2020-08-18","RA_OF_ASC_NODE":"305.0538","TIME_SYSTEM":"UTC","SITE":"AFETR","REV_AT_EPOCH":"6599","CLASSIFICATION_TYPE":"U","NORAD_CAT_ID":"46118","OBJECT_TYPE":"PAYLOAD","FILE":"3174382","MEAN_ELEMENT_THEORY":"SGP4","EPOCH":"2021-10-20T09:50:56.091552","APOAPSIS":"548.199","OBJECT_NAME":"STARLINK-1588","ECCENTRICITY":"0.00013780","MEAN_MOTION_DDOT":"0.0000000000000","ELEMENT_SET_NO":"999"},{"ECCENTRICITY":"0.00013200","MEAN_MOTION_DDOT":"0.0000000000000","ELEMENT_SET_NO":"999","EPOCH":"2021-10-20T17:32:42.184320","APOAPSIS":"548.111","OBJECT_NAME":"STARLINK-1593","MEAN_ELEMENT_THEORY":"SGP4","FILE":"3175135","NORAD_CAT_ID":"46119","OBJECT_TYPE":"PAYLOAD","REV_AT_EPOCH":"6602","CLASSIFICATION_TYPE":"U","SITE":"AFETR","LAUNCH_DATE":"2020-08-18","RA_OF_ASC_NODE":"303.6083","TIME_SYSTEM":"UTC","BSTAR":"-0.00001841500000","RCS_SIZE":"LARGE","MEAN_ANOMALY":"285.3886","TLE_LINE1":"1 46119U 20057C   21293.73104380 -.00000556  00000-0 -18415-4 0  9999","MEAN_MOTION_DOT":"-0.00000556","COUNTRY_CODE":"US","EPHEMERIS_TYPE":"0","GP_ID":"187753795","PERIAPSIS":"546.283","SEMIMAJOR_AXIS":"6925.332","ARG_OF_PERICENTER":"74.7249","PERIOD":"95.592","CENTER_NAME":"EARTH","OBJECT_ID":"2020-057C","MEAN_MOTION":"15.06405307","INCLINATION":"53.0542","DECAY_DATE":null,"REF_FRAME":"TEME","TLE_LINE2":"2 46119  53.0542 303.6083 0001320  74.7249 285.3886 15.06405307 66029"},{"GP_ID":"187718071","EPHEMERIS_TYPE":"0","PERIAPSIS":"546.256","COUNTRY_CODE":"US","MEAN_MOTION_DOT":"0.00001035","ARG_OF_PERICENTER":"61.9436","SEMIMAJOR_AXIS":"6925.328","MEAN_MOTION":"15.06406576","OBJECT_ID":"2020-057D","PERIOD":"95.592","CENTER_NAME":"EARTH","REF_FRAME":"TEME","TLE_LINE2":"2 46120  53.0549 305.4592 0001354  61.9436 298.1690 15.06406576 65366","INCLINATION":"53.0549","DECAY_DATE":null,"EPOCH":"2021-10-20T07:38:14.377344","APOAPSIS":"548.131","OBJECT_NAME":"STARLINK-1601","ECCENTRICITY":"0.00013540","MEAN_MOTION_DDOT":"0.0000000000000","ELEMENT_SET_NO":"999","NORAD_CAT_ID":"46120","OBJECT_TYPE":"PAYLOAD","FILE":"3174448","MEAN_ELEMENT_THEORY":"SGP4","RA_OF_ASC_NODE":"305.4592","LAUNCH_DATE":"2020-08-18","TIME_SYSTEM":"UTC","SITE":"AFETR","CLASSIFICATION_TYPE":"U","REV_AT_EPOCH":"6536","TLE_LINE1":"1 46120U 20057D   21293.31822196  .00001035  00000-0  88323-4 0  9993","MEAN_ANOMALY":"298.1690","RCS_SIZE":"LARGE","BSTAR":"0.00008832300000"},{"DECAY_DATE":null,"INCLINATION":"53.0545","TLE_LINE2":"2 46121  53.0545 283.8138 0001553  67.4311 292.6842 15.06392661 65033","REF_FRAME":"TEME","PERIOD":"95.593","CENTER_NAME":"EARTH","OBJECT_ID":"2020-057E","MEAN_MOTION":"15.06392661","SEMIMAJOR_AXIS":"6925.371","ARG_OF_PERICENTER":"67.4311","MEAN_MOTION_DOT":"-0.00001938","COUNTRY_CODE":"US","PERIAPSIS":"546.161","GP_ID":"187755297","EPHEMERIS_TYPE":"0","BSTAR":"-0.00011128000000","RCS_SIZE":"LARGE","MEAN_ANOMALY":"292.6842","TLE_LINE1":"1 46121U 20057E   21293.68497001 -.00001938  00000-0 -11128-3 0  9999","CLASSIFICATION_TYPE":"U","REV_AT_EPOCH":"6503","SITE":"AFETR","TIME_SYSTEM":"UTC","RA_OF_ASC_NODE":"283.8138","LAUNCH_DATE":"2020-08-18","MEAN_ELEMENT_THEORY":"SGP4","FILE":"3175135","OBJECT_TYPE":"PAYLOAD","NORAD_CAT_ID":"46121","ELEMENT_SET_NO":"999","MEAN_MOTION_DDOT":"0.0000000000000","ECCENTRICITY":"0.00015530","APOAPSIS":"548.312","OBJECT_NAME":"STARLINK-1602","EPOCH":"2021-10-20T16:26:21.408864"},{"ECCENTRICITY":"0.00013980","MEAN_MOTION_DDOT":"0.0000000000000","ELEMENT_SET_NO":"999","EPOCH":"2021-10-20T15:04:05.884032","APOAPSIS":"548.173","OBJECT_NAME":"STARLINK-1604","MEAN_ELEMENT_THEORY":"SGP4","FILE":"3175135","NORAD_CAT_ID":"46122","OBJECT_TYPE":"PAYLOAD","REV_AT_EPOCH":"6656","CLASSIFICATION_TYPE":"U","SITE":"AFETR","LAUNCH_DATE":"2020-08-18","RA_OF_ASC_NODE":"264.0642","TIME_SYSTEM":"UTC","BSTAR":"0.00004281900000","RCS_SIZE":"LARGE","MEAN_ANOMALY":"294.6004","TLE_LINE1":"1 46122U 20057F   21293.62784588  .00000356  00000-0  42819-4 0  9996","MEAN_MOTION_DOT":"0.00000356","COUNTRY_CODE":"US","EPHEMERIS_TYPE":"0","GP_ID":"187755537","PERIAPSIS":"546.236","SEMIMAJOR_AXIS":"6925.339","ARG_OF_PERICENTER":"65.5130","CENTER_NAME":"EARTH","PERIOD":"95.592","OBJECT_ID":"2020-057F","MEAN_MOTION":"15.06402956","INCLINATION":"53.0537","DECAY_DATE":null,"REF_FRAME":"TEME","TLE_LINE2":"2 46122  53.0537 264.0642 0001398  65.5130 294.6004 15.06402956 66561"},{"OBJECT_ID":"2020-057G","MEAN_MOTION":"15.06391326","PERIOD":"95.593","CENTER_NAME":"EARTH","INCLINATION":"53.0533","DECAY_DATE":null,"REF_FRAME":"TEME","TLE_LINE2":"2 46123  53.0533 264.1329 0001448  72.9633 287.1515 15.06391326 66581","EPHEMERIS_TYPE":"0","GP_ID":"187754296","PERIAPSIS":"546.237","MEAN_MOTION_DOT":"-0.00003017","COUNTRY_CODE":"US","ARG_OF_PERICENTER":"72.9633","SEMIMAJOR_AXIS":"6925.375","LAUNCH_DATE":"2020-08-18","RA_OF_ASC_NODE":"264.1329","TIME_SYSTEM":"UTC","CLASSIFICATION_TYPE":"U","REV_AT_EPOCH":"6658","SITE":"AFETR","MEAN_ANOMALY":"287.1515","TLE_LINE1":"1 46123U 20057G   21293.61309077 -.00003017  00000-0 -18375-3 0  9990","BSTAR":"-0.00018375000000","RCS_SIZE":"LARGE","ECCENTRICITY":"0.00014480","MEAN_MOTION_DDOT":"0.0000000000000","ELEMENT_SET_NO":"999","EPOCH":"2021-10-20T14:42:51.042528","OBJECT_NAME":"STARLINK-1605","APOAPSIS":"548.243","NORAD_CAT_ID":"46123","OBJECT_TYPE":"PAYLOAD","MEAN_ELEMENT_THEORY":"SGP4","FILE":"3175135"},{"SEMIMAJOR_AXIS":"6925.340","ARG_OF_PERICENTER":"67.4079","COUNTRY_CODE":"US","MEAN_MOTION_DOT":"-0.00000192","GP_ID":"187713628","EPHEMERIS_TYPE":"0","PERIAPSIS":"546.206","REF_FRAME":"TEME","TLE_LINE2":"2 46124  53.0549 265.2955 0001443  67.4079 292.7063 15.06402809 65278","INCLINATION":"53.0549","DECAY_DATE":null,"PERIOD":"95.592","CENTER_NAME":"EARTH","MEAN_MOTION":"15.06402809","OBJECT_ID":"2020-057H","FILE":"3174382","MEAN_ELEMENT_THEORY":"SGP4","NORAD_CAT_ID":"46124","OBJECT_TYPE":"PAYLOAD","EPOCH":"2021-10-20T08:31:18.626880","APOAPSIS":"548.204","OBJECT_NAME":"STARLINK-1614","MEAN_MOTION_DDOT":"0.0000000000000","ECCENTRICITY":"0.00014430","ELEMENT_SET_NO":"999","RCS_SIZE":"LARGE","BSTAR":"0.00000597810000","TLE_LINE1":"1 46124U 20057H   21293.35507670 -.00000192  00000-0  59781-5 0  9999","MEAN_ANOMALY":"292.7063","SITE":"AFETR","REV_AT_EPOCH":"6527","CLASSIFICATION_TYPE":"U","LAUNCH_DATE":"2020-08-18","RA_OF_ASC_NODE":"265.2955","TIME_SYSTEM":"UTC"}];
